[{"OBJECT_NAME":"STARLINK-6352","OBJECT_ID":"2023-078R","EPOCH":"2026-03-09T23:30:10.268064","MEAN_MOTION":14.98319389,"ECCENTRICITY":0.00029699,"INCLINATION":69.9997,"RA_OF_ASC_NODE":323.8595,"ARG_OF_PERICENTER":266.4672,"MEAN_ANOMALY":93.6147,"EPHEMERIS_TYPE":0,"CLASSIFICATION_TYPE":"U","NORAD_CAT_ID":56782,"ELEMENT_SET_NO":999,"REV_AT_EPOCH":15321,"BSTAR":5.2158184e-5,"MEAN_MOTION_DOT":5.29e-6,"MEAN_MOTION_DDOT":0},{"OBJECT_NAME":"FENGYUN 1C DEB","OBJECT_ID":"1999-025AMM","EPOCH":"2026-03-09T23:05:15.567936","MEAN_MOTION":14.58578294,"ECCENTRICITY":0.02096652,"INCLINATION":98.0952,"RA_OF_ASC_NODE":81.878,"ARG_OF_PERICENTER":224.9272,"MEAN_ANOMALY":164.1003,"EPHEMERIS_TYPE":0,"CLASSIFICATION_TYPE":"U","NORAD_CAT_ID":30606,"ELEMENT_SET_NO":999,"REV_AT_EPOCH":514,"BSTAR":0.00059655112,"MEAN_MOTION_DOT":3.71e-5,"MEAN_MOTION_DDOT":0}]
